{
    "links": {
        "self": "http://www.neowsapp.com/rest/v1/neo/3274489?api_key=iIulBulltgU6a56xZRHN4H3l9WmuAYTsLGpBGhQ2"
    },
    "id": "3274489",
    "neo_reference_id": "3274489",
    "name": "(2005 EZ223)",
    "designation": "2005 EZ223",
    "nasa_jpl_url": "http://ssd.jpl.nasa.gov/sbdb.cgi?sstr=3274489",
    "absolute_magnitude_h": 22.4,
    "estimated_diameter": {
        "kilometers": {
            "estimated_diameter_min": 0.0880146521,
            "estimated_diameter_max": 0.1968067451
        },
        "meters": {
            "estimated_diameter_min": 88.0146520901,
            "estimated_diameter_max": 196.8067450894
        },
        "miles": {
            "estimated_diameter_min": 0.0546897524,
            "estimated_diameter_max": 0.122290004
        },
        "feet": {
            "estimated_diameter_min": 288.7619911632,
            "estimated_diameter_max": 645.6914415591
        }
    },
    "is_potentially_hazardous_asteroid": false,
    "close_approach_data": [
        {
            "close_approach_date": "1947-03-04",
            "close_approach_date_full": "1947-Mar-04 04:14",
            "epoch_date_close_approach": -720474360000,
            "relative_velocity": {
                "kilometers_per_second": "12.2178674636",
                "kilometers_per_hour": "43984.322869046",
                "miles_per_hour": "27330.1477293803"
            },
            "miss_distance": {
                "astronomical": "0.0375027401",
                "lunar": "14.5885658989",
                "kilometers": "5610330.038123587",
                "miles": "3486097.4332040206"
            },
            "orbiting_body": "Earth"
        },
        {
            "close_approach_date": "2005-03-09",
            "close_approach_date_full": "2005-Mar-09 19:49",
            "epoch_date_close_approach": 1110397740000,
            "relative_velocity": {
                "kilometers_per_second": "13.9896326309",
                "kilometers_per_hour": "50362.6774712897",
                "miles_per_hour": "31293.4092320911"
            },
            "miss_distance": {
                "astronomical": "0.0402936487",
                "lunar": "15.6742293443",
                "kilometers": "6027844.020048269",
                "miles": "3745528.5915893522"
            },
            "orbiting_body": "Earth"
        },
        {
            "close_approach_date": "2053-10-08",
            "close_approach_date_full": "2053-Oct-08 10:02",
            "epoch_date_close_approach": 2643530520000,
            "relative_velocity": {
                "kilometers_per_second": "25.6853922037",
                "kilometers_per_hour": "92467.4119333157",
                "miles_per_hour": "57455.6538204538"
            },
            "miss_distance": {
                "astronomical": "0.426711936",
                "lunar": "165.990943104",
                "kilometers": "63835196.72917632",
                "miles": "39665351.940700416"
            },
            "orbiting_body": "Earth"
        }
    ],
    "orbital_data": {
        "orbit_id": "11",
        "orbit_determination_date": "2017-04-06 09:11:15",
        "first_observation_date": "2005-03-14",
        "last_observation_date": "2005-04-06",
        "data_arc_in_days": 23,
        "observations_used": 58,
        "orbit_uncertainty": "8",
        "minimum_orbit_intersection": ".0230679",
        "jupiter_tisserand_invariant": "3.940",
        "epoch_osculation": "2453448.5",
        "eccentricity": ".5405413231670659",
        "semi_major_axis": "1.754931579643411",
        "inclination": "3.934922278036071",
        "ascending_node_longitude": "5.831093499022861",
        "orbital_period": "849.1584008433159",
        "perihelion_distance": ".8063185415152925",
        "perihelion_argument": "97.70535033999732",
        "aphelion_distance": "2.703544617771529",
        "perihelion_time": "2453395.248718322601",
        "mean_anomaly": "22.57583671647725",
        "mean_motion": ".4239491708996542",
        "equinox": "J2000",
        "orbit_class": {
            "orbit_class_type": "APO",
            "orbit_class_description": "Near-Earth asteroid orbits which cross the Earth’s orbit similar to that of 1862 Apollo",
            "orbit_class_range": "a (semi-major axis) > 1.0 AU; q (perihelion) < 1.017 AU"
        }
    },
    "is_sentry_object": false
}